start=new Date('2021-09-09T00:00:00.000Z').valueOf();
sats=[{"EPOCH":"2021-09-08T18:59:22.889760","OBJECT_NAME":"STARLINK-1064","TIME_SYSTEM":"UTC","EPHEMERIS_TYPE":"0","BSTAR":"0.00010456000000","TLE_LINE1":"1 44769U 19074BJ  21251.79123715  .00004142  00000-0  10456-3 0  9997","RCS_SIZE":"LARGE","FILE":"3111252","ARG_OF_PERICENTER":"66.0839","RA_OF_ASC_NODE":"36.0681","CENTER_NAME":"EARTH","INCLINATION":"53.0459","PERIOD":"93.375","ELEMENT_SET_NO":"999","REF_FRAME":"TEME","NORAD_CAT_ID":"44769","APOAPSIS":"441.146","DECAY_DATE":null,"MEAN_ELEMENT_THEORY":"SGP4","COUNTRY_CODE":"US","GP_ID":"184347223","ECCENTRICITY":"0.00021090","OBJECT_ID":"2019-074BJ","MEAN_ANOMALY":"294.0386","MEAN_MOTION":"15.42169948","LAUNCH_DATE":"2019-11-11","REV_AT_EPOCH":"10072","CLASSIFICATION_TYPE":"U","SEMIMAJOR_AXIS":"6817.843","TLE_LINE2":"2 44769  53.0459  36.0681 0002109  66.0839 294.0386 15.42169948100727","MEAN_MOTION_DOT":"0.00004142","SITE":"AFETR","MEAN_MOTION_DDOT":"0.0000000000000","PERIAPSIS":"438.270","OBJECT_TYPE":"PAYLOAD"},{"MEAN_ANOMALY":"265.1921","MEAN_MOTION":"15.08461127","LAUNCH_DATE":"2019-11-11","DECAY_DATE":null,"MEAN_ELEMENT_THEORY":"SGP4","NORAD_CAT_ID":"44770","APOAPSIS":"541.535","COUNTRY_CODE":"US","ECCENTRICITY":"0.00009130","GP_ID":"184345471","OBJECT_ID":"2019-074BK","MEAN_MOTION_DDOT":"0.0000000000000","MEAN_MOTION_DOT":"0.00005489","TLE_LINE2":"2 44770  53.0040  36.7856 0000913  94.9173 265.1921 15.08461127100638","SITE":"AFETR","PERIAPSIS":"540.272","OBJECT_TYPE":"PAYLOAD","CLASSIFICATION_TYPE":"U","SEMIMAJOR_AXIS":"6919.039","REV_AT_EPOCH":"10063","EPHEMERIS_TYPE":"0","RCS_SIZE":"LARGE","TLE_LINE1":"1 44770U 19074BK  21251.88479663  .00005489  00000-0  36635-3 0  9997","BSTAR":"0.00036635000000","OBJECT_NAME":"STARLINK-1065","EPOCH":"2021-09-08T21:14:06.428832","TIME_SYSTEM":"UTC","INCLINATION":"53.0040","ELEMENT_SET_NO":"999","PERIOD":"95.462","REF_FRAME":"TEME","ARG_OF_PERICENTER":"94.9173","FILE":"3111252","CENTER_NAME":"EARTH","RA_OF_ASC_NODE":"36.7856"},{"MEAN_ELEMENT_THEORY":"SGP4","DECAY_DATE":null,"NORAD_CAT_ID":"44771","APOAPSIS":"548.367","COUNTRY_CODE":"US","ECCENTRICITY":"0.00016770","GP_ID":"184345721","OBJECT_ID":"2019-074BL","MEAN_ANOMALY":"259.4682","MEAN_MOTION":"15.06402623","LAUNCH_DATE":"2019-11-11","SEMIMAJOR_AXIS":"6925.341","CLASSIFICATION_TYPE":"U","REV_AT_EPOCH":"10058","MEAN_MOTION_DDOT":"0.0000000000000","MEAN_MOTION_DOT":"0.00001287","TLE_LINE2":"2 44771  53.0573  41.5561 0001677 100.6496 259.4682 15.06402623100586","SITE":"AFETR","PERIAPSIS":"546.044","OBJECT_TYPE":"PAYLOAD","OBJECT_NAME":"STARLINK-1067","EPOCH":"2021-09-08T20:43:15.331296","TIME_SYSTEM":"UTC","EPHEMERIS_TYPE":"0","RCS_SIZE":"LARGE","TLE_LINE1":"1 44771U 19074BL  21251.86337189  .00001287  00000-0  10528-3 0  9997","BSTAR":"0.00010528000000","ARG_OF_PERICENTER":"100.6496","FILE":"3111252","CENTER_NAME":"EARTH","RA_OF_ASC_NODE":"41.5561","INCLINATION":"53.0573","ELEMENT_SET_NO":"999","PERIOD":"95.592","REF_FRAME":"TEME"},{"APOAPSIS":"548.111","NORAD_CAT_ID":"44772","MEAN_ELEMENT_THEORY":"SGP4","DECAY_DATE":null,"COUNTRY_CODE":"US","GP_ID":"184346973","ECCENTRICITY":"0.00012720","OBJECT_ID":"2019-074BM","MEAN_ANOMALY":"247.2397","MEAN_MOTION":"15.06394474","LAUNCH_DATE":"2019-11-11","REV_AT_EPOCH":"10083","SEMIMAJOR_AXIS":"6925.365","CLASSIFICATION_TYPE":"U","TLE_LINE2":"2 44772  53.0559  22.1935 0001272 112.8726 247.2397 15.06394474100833","MEAN_MOTION_DOT":"0.00001260","SITE":"AFETR","MEAN_MOTION_DDOT":"0.0000000000000","PERIAPSIS":"546.350","OBJECT_TYPE":"PAYLOAD","EPOCH":"2021-09-08T17:18:54.612288","OBJECT_NAME":"STARLINK-1068","TIME_SYSTEM":"UTC","EPHEMERIS_TYPE":"0","TLE_LINE1":"1 44772U 19074BM  21251.72146542  .00001260  00000-0  10347-3 0  9994","RCS_SIZE":"LARGE","BSTAR":"0.00010347000000","FILE":"3111252","ARG_OF_PERICENTER":"112.8726","CENTER_NAME":"EARTH","RA_OF_ASC_NODE":"22.1935","INCLINATION":"53.0559","PERIOD":"95.592","ELEMENT_SET_NO":"999","REF_FRAME":"TEME"},{"TIME_SYSTEM":"UTC","EPOCH":"2021-09-08T20:53:52.731744","OBJECT_NAME":"STARLINK-1073","EPHEMERIS_TYPE":"0","TLE_LINE1":"1 44914U 20001A   21251.87074921 -.00000132  00000-0  10048-4 0  9998","BSTAR":"0.00001004800000","RCS_SIZE":"LARGE","FILE":"3111252","ARG_OF_PERICENTER":"61.1376","RA_OF_ASC_NODE":"161.5290","CENTER_NAME":"EARTH","PERIOD":"95.592","ELEMENT_SET_NO":"999","INCLINATION":"53.0554","REF_FRAME":"TEME","COUNTRY_CODE":"US","NORAD_CAT_ID":"44914","APOAPSIS":"548.832","DECAY_DATE":null,"MEAN_ELEMENT_THEORY":"SGP4","OBJECT_ID":"2020-001A","ECCENTRICITY":"0.00023240","GP_ID":"184345986","MEAN_MOTION":"15.06397001","MEAN_ANOMALY":"298.9846","LAUNCH_DATE":"2020-01-07","REV_AT_EPOCH":"9223","CLASSIFICATION_TYPE":"U","SEMIMAJOR_AXIS":"6925.358","TLE_LINE2":"2 44914  53.0554 161.5290 0002324  61.1376 298.9846 15.06397001 92239","SITE":"AFETR","MEAN_MOTION_DOT":"-0.00000132","MEAN_MOTION_DDOT":"0.0000000000000","OBJECT_TYPE":"PAYLOAD","PERIAPSIS":"545.613"},{"INCLINATION":"53.0548","PERIOD":"95.592","ELEMENT_SET_NO":"999","REF_FRAME":"TEME","FILE":"3111252","ARG_OF_PERICENTER":"61.0035","CENTER_NAME":"EARTH","RA_OF_ASC_NODE":"161.9953","EPHEMERIS_TYPE":"0","TLE_LINE1":"1 44915U 20001B   21251.76754041 -.00000642  00000-0 -24200-4 0  9997","BSTAR":"-0.00002420000000","RCS_SIZE":"LARGE","EPOCH":"2021-09-08T18:25:15.491424","OBJECT_NAME":"STARLINK-1084","TIME_SYSTEM":"UTC","SITE":"AFETR","TLE_LINE2":"2 44915  53.0548 161.9953 0002023  61.0035 299.1157 15.06398325 92227","MEAN_MOTION_DOT":"-0.00000642","MEAN_MOTION_DDOT":"0.0000000000000","PERIAPSIS":"545.818","OBJECT_TYPE":"PAYLOAD","REV_AT_EPOCH":"9222","CLASSIFICATION_TYPE":"U","SEMIMAJOR_AXIS":"6925.354","MEAN_ANOMALY":"299.1157","MEAN_MOTION":"15.06398325","LAUNCH_DATE":"2020-01-07","APOAPSIS":"548.620","NORAD_CAT_ID":"44915","DECAY_DATE":null,"MEAN_ELEMENT_THEORY":"SGP4","COUNTRY_CODE":"US","ECCENTRICITY":"0.00020230","GP_ID":"184346236","OBJECT_ID":"2020-001B"},{"FILE":"3111252","ARG_OF_PERICENTER":"62.4193","CENTER_NAME":"EARTH","RA_OF_ASC_NODE":"145.3950","PERIOD":"91.635","ELEMENT_SET_NO":"999","INCLINATION":"53.0533","REF_FRAME":"TEME","TIME_SYSTEM":"UTC","EPOCH":"2021-09-08T17:55:05.866752","OBJECT_NAME":"STARLINK-1097","EPHEMERIS_TYPE":"0","TLE_LINE1":"1 44916U 20001C   21251.74659568 -.00001359  00000-0 -57926-5 0  9992","RCS_SIZE":"LARGE","BSTAR":"-0.00000579260000","REV_AT_EPOCH":"9245","CLASSIFICATION_TYPE":"U","SEMIMAJOR_AXIS":"6732.864","SITE":"AFETR","TLE_LINE2":"2 44916  53.0533 145.3950 0001106  62.4193 297.6936 15.71458862 92454","MEAN_MOTION_DOT":"-0.00001359","MEAN_MOTION_DDOT":"0.0000000000000","OBJECT_TYPE":"PAYLOAD","PERIAPSIS":"353.984","COUNTRY_CODE":"US","APOAPSIS":"355.473","NORAD_CAT_ID":"44916","DECAY_DATE":null,"MEAN_ELEMENT_THEORY":"SGP4","OBJECT_ID":"2020-001C","ECCENTRICITY":"0.00011060","GP_ID":"184346487","MEAN_MOTION":"15.71458862","MEAN_ANOMALY":"297.6936","LAUNCH_DATE":"2020-01-07"},{"OBJECT_NAME":"STARLINK-1098","EPOCH":"2021-09-08T18:30:33.483168","TIME_SYSTEM":"UTC","EPHEMERIS_TYPE":"0","RCS_SIZE":"LARGE","TLE_LINE1":"1 44917U 20001D   21251.77122087  .00001062  00000-0  90227-4 0  9996","BSTAR":"0.00009022700000","ARG_OF_PERICENTER":"66.9679","FILE":"3111252","CENTER_NAME":"EARTH","RA_OF_ASC_NODE":"161.9788","INCLINATION":"53.0554","ELEMENT_SET_NO":"999","PERIOD":"95.592","REF_FRAME":"TEME","DECAY_DATE":null,"MEAN_ELEMENT_THEORY":"SGP4","NORAD_CAT_ID":"44917","APOAPSIS":"548.680","COUNTRY_CODE":"US","GP_ID":"184347238","ECCENTRICITY":"0.00021230","OBJECT_ID":"2020-001D","MEAN_ANOMALY":"293.1534","MEAN_MOTION":"15.06401290","LAUNCH_DATE":"2020-01-07","SEMIMAJOR_AXIS":"6925.345","CLASSIFICATION_TYPE":"U","REV_AT_EPOCH":"9222","MEAN_MOTION_DDOT":"0.0000000000000","TLE_LINE2":"2 44917  53.0554 161.9788 0002123  66.9679 293.1534 15.06401290 92220","SITE":"AFETR","MEAN_MOTION_DOT":"0.00001062","PERIAPSIS":"545.739","OBJECT_TYPE":"PAYLOAD"},{"EPOCH":"2021-09-08T18:46:29.754912","OBJECT_NAME":"STARLINK-1099","TIME_SYSTEM":"UTC","EPHEMERIS_TYPE":"0","TLE_LINE1":"1 44918U 20001E   21251.78228883 -.00000536  00000-0 -17102-4 0  9997","BSTAR":"-0.00001710200000","RCS_SIZE":"LARGE","FILE":"3111252","ARG_OF_PERICENTER":"68.3807","RA_OF_ASC_NODE":"161.9274","CENTER_NAME":"EARTH","INCLINATION":"53.0547","PERIOD":"95.593","ELEMENT_SET_NO":"999","REF_FRAME":"TEME","APOAPSIS":"548.634","NORAD_CAT_ID":"44918","DECAY_DATE":null,"MEAN_ELEMENT_THEORY":"SGP4","COUNTRY_CODE":"US","GP_ID":"184345486","ECCENTRICITY":"0.00019930","OBJECT_ID":"2020-001E","MEAN_ANOMALY":"291.7395","MEAN_MOTION":"15.06386847","LAUNCH_DATE":"2020-01-07","REV_AT_EPOCH":"9296","CLASSIFICATION_TYPE":"U","SEMIMAJOR_AXIS":"6925.389","TLE_LINE2":"2 44918  53.0547 161.9274 0001993  68.3807 291.7395 15.06386847 92966","MEAN_MOTION_DOT":"-0.00000536","SITE":"AFETR","MEAN_MOTION_DDOT":"0.0000000000000","PERIAPSIS":"545.874","OBJECT_TYPE":"PAYLOAD"},{"REF_FRAME":"TEME","INCLINATION":"53.0530","ELEMENT_SET_NO":"999","PERIOD":"91.634","RA_OF_ASC_NODE":"148.1192","CENTER_NAME":"EARTH","ARG_OF_PERICENTER":"44.7903","FILE":"3111252","RCS_SIZE":"LARGE","TLE_LINE1":"1 44919U 20001F   21251.85728256  .00061433  00000-0  47235-3 0  9995","BSTAR":"0.00047235000000","EPHEMERIS_TYPE":"0","OBJECT_NAME":"STARLINK-1101","EPOCH":"2021-09-08T20:34:29.213184","TIME_SYSTEM":"UTC","PERIAPSIS":"354.178","OBJECT_TYPE":"PAYLOAD","MEAN_MOTION_DDOT":"0.0000000000000","MEAN_MOTION_DOT":"0.00061433","TLE_LINE2":"2 44919  53.0530 148.1192 0000803  44.7903 315.3179 15.71462328 92424","SITE":"AFETR","SEMIMAJOR_AXIS":"6732.854","CLASSIFICATION_TYPE":"U","REV_AT_EPOCH":"9242","LAUNCH_DATE":"2020-01-07","MEAN_ANOMALY":"315.3179","MEAN_MOTION":"15.71462328","ECCENTRICITY":"0.00008030","GP_ID":"184345736","OBJECT_ID":"2020-001F","DECAY_DATE":null,"MEAN_ELEMENT_THEORY":"SGP4","APOAPSIS":"355.260","NORAD_CAT_ID":"44919","COUNTRY_CODE":"US"}];
